[{"OBJECT_NAME":"CUBESX-HSE 3 (RS42S)","OBJECT_ID":"2023-091N","EPOCH":"2026-03-09T22:57:25.321248","MEAN_MOTION":15.286147,"ECCENTRICITY":0.00127191,"INCLINATION":97.5203,"RA_OF_ASC_NODE":133.4295,"ARG_OF_PERICENTER":86.5376,"MEAN_ANOMALY":273.7318,"EPHEMERIS_TYPE":0,"CLASSIFICATION_TYPE":"U","NORAD_CAT_ID":57178,"ELEMENT_SET_NO":999,"REV_AT_EPOCH":14925,"BSTAR":0.00059055694,"MEAN_MOTION_DOT":0.00016417,"MEAN_MOTION_DDOT":0},{"OBJECT_NAME":"STARLINK-36540","OBJECT_ID":"2026-012U","EPOCH":"2026-03-09T09:32:17.312640","MEAN_MOTION":15.27578005,"ECCENTRICITY":9.935e-5,"INCLINATION":42.9903,"RA_OF_ASC_NODE":316.3747,"ARG_OF_PERICENTER":107.9726,"MEAN_ANOMALY":252.1234,"EPHEMERIS_TYPE":0,"CLASSIFICATION_TYPE":"U","NORAD_CAT_ID":67511,"ELEMENT_SET_NO":999,"REV_AT_EPOCH":771,"BSTAR":0.0010815292,"MEAN_MOTION_DOT":0.00029617,"MEAN_MOTION_DDOT":0}]
